start=new Date('2022-05-27T00:00:00.000Z').valueOf();
sats=[{"OBJECT_NAME":"STARLINK-3843","EPHEMERIS_TYPE":"0","OBJECT_TYPE":"PAYLOAD","MEAN_ANOMALY":"79.4969","RA_OF_ASC_NODE":"303.1620","TLE_LINE1":"1 52341U 22045L   22146.91667824 -.00708413  00000-0 -10680-1 0  9997","REF_FRAME":"TEME","RCS_SIZE":"LARGE","ARG_OF_PERICENTER":"81.6882","PERIOD":"92.510","CENTER_NAME":"EARTH","CLASSIFICATION_TYPE":"U","INCLINATION":"53.2173","REV_AT_EPOCH":"130","LAUNCH_DATE":"2022-04-29","DECAY_DATE":null,"EPOCH":"2022-05-26T22:00:00.999936","MEAN_MOTION":"15.56595424","TLE_LINE2":"2 52341  53.2173 303.1620 0001197  81.6882  79.4969 15.56595424  1308","BSTAR":"-0.01068000000000","MEAN_MOTION_DDOT":"0.0000000000000","FILE":"3466271","COUNTRY_CODE":"US","PERIAPSIS":"396.710","NORAD_CAT_ID":"52341","ECCENTRICITY":"0.00011970","APOAPSIS":"398.332","MEAN_ELEMENT_THEORY":"SGP4","ELEMENT_SET_NO":"999","TIME_SYSTEM":"UTC","OBJECT_ID":"2022-045L","GP_ID":"204630139","SEMIMAJOR_AXIS":"6775.656","SITE":"AFETR","MEAN_MOTION_DOT":"-0.00708413"},{"MEAN_ANOMALY":"77.6886","RA_OF_ASC_NODE":"302.4989","EPHEMERIS_TYPE":"0","OBJECT_TYPE":"PAYLOAD","OBJECT_NAME":"STARLINK-3850","CENTER_NAME":"EARTH","PERIOD":"91.534","TLE_LINE1":"1 52342U 22045M   22146.91667824 -.00015316  00000-0 -10494-3 0  9996","ARG_OF_PERICENTER":"52.9253","RCS_SIZE":"LARGE","REF_FRAME":"TEME","LAUNCH_DATE":"2022-04-29","REV_AT_EPOCH":"130","CLASSIFICATION_TYPE":"U","INCLINATION":"53.2139","TLE_LINE2":"2 52342  53.2139 302.4989 0001448  52.9253  77.6886 15.73191875  1302","MEAN_MOTION":"15.73191875","DECAY_DATE":null,"EPOCH":"2022-05-26T22:00:00.999936","FILE":"3466271","COUNTRY_CODE":"US","PERIAPSIS":"348.809","BSTAR":"-0.00010494000000","MEAN_MOTION_DDOT":"0.0000000000000","APOAPSIS":"350.758","ECCENTRICITY":"0.00014480","NORAD_CAT_ID":"52342","OBJECT_ID":"2022-045M","ELEMENT_SET_NO":"999","TIME_SYSTEM":"UTC","MEAN_ELEMENT_THEORY":"SGP4","SITE":"AFETR","MEAN_MOTION_DOT":"-0.00015316","SEMIMAJOR_AXIS":"6727.918","GP_ID":"204630262"},{"GP_ID":"204630583","SEMIMAJOR_AXIS":"6775.613","SITE":"AFETR","MEAN_MOTION_DOT":"-0.00708129","MEAN_ELEMENT_THEORY":"SGP4","ELEMENT_SET_NO":"999","TIME_SYSTEM":"UTC","OBJECT_ID":"2022-045N","NORAD_CAT_ID":"52343","ECCENTRICITY":"0.00013540","APOAPSIS":"398.396","BSTAR":"-0.01066900000000","MEAN_MOTION_DDOT":"0.0000000000000","FILE":"3466271","COUNTRY_CODE":"US","PERIAPSIS":"396.561","DECAY_DATE":null,"EPOCH":"2022-05-26T22:00:00.999936","MEAN_MOTION":"15.56610136","TLE_LINE2":"2 52343  53.2174 303.2541 0001354  58.6326 104.8660 15.56610136  1305","CLASSIFICATION_TYPE":"U","INCLINATION":"53.2174","REV_AT_EPOCH":"130","LAUNCH_DATE":"2022-04-29","RCS_SIZE":"LARGE","TLE_LINE1":"1 52343U 22045N   22146.91667824 -.00708129  00000-0 -10669-1 0  9990","ARG_OF_PERICENTER":"58.6326","REF_FRAME":"TEME","PERIOD":"92.509","CENTER_NAME":"EARTH","OBJECT_NAME":"STARLINK-3849","EPHEMERIS_TYPE":"0","OBJECT_TYPE":"PAYLOAD","MEAN_ANOMALY":"104.8660","RA_OF_ASC_NODE":"303.2541"},{"MEAN_MOTION_DDOT":"0.0000000000000","BSTAR":"0.00001865200000","PERIAPSIS":"348.963","COUNTRY_CODE":"US","FILE":"3466271","NORAD_CAT_ID":"52344","ECCENTRICITY":"0.00012980","APOAPSIS":"350.709","MEAN_ELEMENT_THEORY":"SGP4","TIME_SYSTEM":"UTC","ELEMENT_SET_NO":"999","OBJECT_ID":"2022-045P","SEMIMAJOR_AXIS":"6727.971","GP_ID":"204630368","MEAN_MOTION_DOT":"0.00001996","SITE":"AFETR","OBJECT_NAME":"STARLINK-3851","OBJECT_TYPE":"PAYLOAD","EPHEMERIS_TYPE":"0","RA_OF_ASC_NODE":"302.4967","MEAN_ANOMALY":"79.0492","TLE_LINE1":"1 52344U 22045P   22146.91667824  .00001996  00000-0  18652-4 0  9990","REF_FRAME":"TEME","RCS_SIZE":"LARGE","ARG_OF_PERICENTER":"52.7536","PERIOD":"91.535","CENTER_NAME":"EARTH","CLASSIFICATION_TYPE":"U","INCLINATION":"53.2139","REV_AT_EPOCH":"130","LAUNCH_DATE":"2022-04-29","EPOCH":"2022-05-26T22:00:00.999936","DECAY_DATE":null,"MEAN_MOTION":"15.73173420","TLE_LINE2":"2 52344  53.2139 302.4967 0001298  52.7536  79.0492 15.73173420  1300"},{"NORAD_CAT_ID":"52345","APOAPSIS":"350.739","ECCENTRICITY":"0.00012200","BSTAR":"0.00044457000000","MEAN_MOTION_DDOT":"0.0000000000000","FILE":"3466271","COUNTRY_CODE":"US","PERIAPSIS":"349.098","GP_ID":"204630475","SEMIMAJOR_AXIS":"6728.053","SITE":"AFETR","MEAN_MOTION_DOT":"0.00062086","MEAN_ELEMENT_THEORY":"SGP4","ELEMENT_SET_NO":"999","TIME_SYSTEM":"UTC","OBJECT_ID":"2022-045Q","TLE_LINE1":"1 52345U 22045Q   22146.91667824  .00062086  00000-0  44457-3 0  9999","RCS_SIZE":"LARGE","ARG_OF_PERICENTER":"38.8827","REF_FRAME":"TEME","PERIOD":"91.536","CENTER_NAME":"EARTH","OBJECT_NAME":"STARLINK-3852","EPHEMERIS_TYPE":"0","OBJECT_TYPE":"PAYLOAD","MEAN_ANOMALY":"89.9401","RA_OF_ASC_NODE":"302.5031","DECAY_DATE":null,"EPOCH":"2022-05-26T22:00:00.999936","MEAN_MOTION":"15.73144492","TLE_LINE2":"2 52345  53.2141 302.5031 0001220  38.8827  89.9401 15.73144492  1307","CLASSIFICATION_TYPE":"U","INCLINATION":"53.2141","REV_AT_EPOCH":"130","LAUNCH_DATE":"2022-04-29"},{"NORAD_CAT_ID":"52346","APOAPSIS":"350.521","ECCENTRICITY":"0.00008900","MEAN_MOTION_DDOT":"0.0000000000000","BSTAR":"-0.00016457000000","PERIAPSIS":"349.323","COUNTRY_CODE":"US","FILE":"3466271","SEMIMAJOR_AXIS":"6728.057","GP_ID":"204629927","MEAN_MOTION_DOT":"-0.00023593","SITE":"AFETR","MEAN_ELEMENT_THEORY":"SGP4","TIME_SYSTEM":"UTC","ELEMENT_SET_NO":"999","OBJECT_ID":"2022-045R","TLE_LINE1":"1 52346U 22045R   22146.82982008 -.00023593  00000-0 -16457-3 0  9995","ARG_OF_PERICENTER":"32.4617","RCS_SIZE":"LARGE","REF_FRAME":"TEME","PERIOD":"91.536","CENTER_NAME":"EARTH","OBJECT_NAME":"STARLINK-3812","OBJECT_TYPE":"PAYLOAD","EPHEMERIS_TYPE":"0","RA_OF_ASC_NODE":"302.9243","MEAN_ANOMALY":"327.6458","EPOCH":"2022-05-26T19:54:56.454912","DECAY_DATE":null,"MEAN_MOTION":"15.73143179","TLE_LINE2":"2 52346  53.2146 302.9243 0000890  32.4617 327.6458 15.73143179  6794","CLASSIFICATION_TYPE":"U","INCLINATION":"53.2146","REV_AT_EPOCH":"679","LAUNCH_DATE":"2022-04-29"},{"SEMIMAJOR_AXIS":"6727.856","GP_ID":"204630671","SITE":"AFETR","MEAN_MOTION_DOT":"0.00005044","OBJECT_ID":"2022-045S","MEAN_ELEMENT_THEORY":"SGP4","ELEMENT_SET_NO":"999","TIME_SYSTEM":"UTC","APOAPSIS":"350.524","ECCENTRICITY":"0.00011940","NORAD_CAT_ID":"52347","FILE":"3466271","COUNTRY_CODE":"US","PERIAPSIS":"348.917","BSTAR":"0.00004031000000","MEAN_MOTION_DDOT":"0.0000000000000","MEAN_MOTION":"15.73213846","TLE_LINE2":"2 52347  53.2154 302.9270 0001194  68.8705 291.2443 15.73213846  6792","DECAY_DATE":null,"EPOCH":"2022-05-26T19:55:32.188224","REV_AT_EPOCH":"679","LAUNCH_DATE":"2022-04-29","INCLINATION":"53.2154","CLASSIFICATION_TYPE":"U","PERIOD":"91.532","CENTER_NAME":"EARTH","TLE_LINE1":"1 52347U 22045S   22146.83023366  .00005044  00000-0  40310-4 0  9995","REF_FRAME":"TEME","RCS_SIZE":"LARGE","ARG_OF_PERICENTER":"68.8705","EPHEMERIS_TYPE":"0","OBJECT_TYPE":"PAYLOAD","MEAN_ANOMALY":"291.2443","RA_OF_ASC_NODE":"302.9270","OBJECT_NAME":"STARLINK-3826"},{"MEAN_MOTION":"15.73175963","TLE_LINE2":"2 52348  53.2138 302.4925 0001501  52.3739  81.1882 15.73175963  1306","EPOCH":"2022-05-26T22:00:00.999936","DECAY_DATE":null,"REV_AT_EPOCH":"130","LAUNCH_DATE":"2022-04-29","CLASSIFICATION_TYPE":"U","INCLINATION":"53.2138","PERIOD":"91.535","CENTER_NAME":"EARTH","RCS_SIZE":"LARGE","TLE_LINE1":"1 52348U 22045T   22146.91667824  .00010151  00000-0  76736-4 0  9994","ARG_OF_PERICENTER":"52.3739","REF_FRAME":"TEME","OBJECT_TYPE":"PAYLOAD","EPHEMERIS_TYPE":"0","RA_OF_ASC_NODE":"302.4925","MEAN_ANOMALY":"81.1882","OBJECT_NAME":"STARLINK-3829","SEMIMAJOR_AXIS":"6727.964","GP_ID":"204630034","MEAN_MOTION_DOT":"0.00010151","SITE":"AFETR","OBJECT_ID":"2022-045T","MEAN_ELEMENT_THEORY":"SGP4","TIME_SYSTEM":"UTC","ELEMENT_SET_NO":"999","APOAPSIS":"350.839","ECCENTRICITY":"0.00015010","NORAD_CAT_ID":"52348","PERIAPSIS":"348.819","COUNTRY_CODE":"US","FILE":"3466271","MEAN_MOTION_DDOT":"0.0000000000000","BSTAR":"0.00007673600000"},{"OBJECT_ID":"2022-045U","MEAN_ELEMENT_THEORY":"SGP4","TIME_SYSTEM":"UTC","ELEMENT_SET_NO":"999","GP_ID":"204630140","SEMIMAJOR_AXIS":"6727.970","MEAN_MOTION_DOT":"-0.00046216","SITE":"AFETR","PERIAPSIS":"348.998","COUNTRY_CODE":"US","FILE":"3466271","MEAN_MOTION_DDOT":"0.0000000000000","BSTAR":"-0.00032705000000","APOAPSIS":"350.671","ECCENTRICITY":"0.00012430","NORAD_CAT_ID":"52349","REV_AT_EPOCH":"130","LAUNCH_DATE":"2022-04-29","CLASSIFICATION_TYPE":"U","INCLINATION":"53.2145","MEAN_MOTION":"15.73173906","TLE_LINE2":"2 52349  53.2145 302.4968 0001243  57.4658  73.7835 15.73173906  1301","EPOCH":"2022-05-26T22:00:00.999936","DECAY_DATE":null,"OBJECT_TYPE":"PAYLOAD","EPHEMERIS_TYPE":"0","RA_OF_ASC_NODE":"302.4968","MEAN_ANOMALY":"73.7835","OBJECT_NAME":"STARLINK-3819","PERIOD":"91.535","CENTER_NAME":"EARTH","TLE_LINE1":"1 52349U 22045U   22146.91667824 -.00046216  00000-0 -32705-3 0  9995","RCS_SIZE":"LARGE","ARG_OF_PERICENTER":"57.4658","REF_FRAME":"TEME"},{"SEMIMAJOR_AXIS":"6727.659","GP_ID":"204630263","SITE":"AFETR","MEAN_MOTION_DOT":"0.00006477","MEAN_ELEMENT_THEORY":"SGP4","ELEMENT_SET_NO":"999","TIME_SYSTEM":"UTC","OBJECT_ID":"2022-045V","NORAD_CAT_ID":"52350","APOAPSIS":"350.538","ECCENTRICITY":"0.00015080","BSTAR":"0.00005036100000","MEAN_MOTION_DDOT":"0.0000000000000","FILE":"3466271","PERIAPSIS":"348.509","COUNTRY_CODE":"US","DECAY_DATE":null,"EPOCH":"2022-05-26T19:54:23.246208","MEAN_MOTION":"15.73282879","TLE_LINE2":"2 52350  53.2166 302.9220 0001508  62.4383 297.6790 15.73282879  6792","CLASSIFICATION_TYPE":"U","INCLINATION":"53.2166","REV_AT_EPOCH":"679","LAUNCH_DATE":"2022-04-29","TLE_LINE1":"1 52350U 22045V   22146.82943572  .00006477  00000-0  50361-4 0  9996","ARG_OF_PERICENTER":"62.4383","RCS_SIZE":"LARGE","REF_FRAME":"TEME","PERIOD":"91.528","CENTER_NAME":"EARTH","OBJECT_NAME":"STARLINK-3754","EPHEMERIS_TYPE":"0","OBJECT_TYPE":"PAYLOAD","MEAN_ANOMALY":"297.6790","RA_OF_ASC_NODE":"302.9220"}];
